FENGYUN 1C DEB          
1 35134U 99025DLN 17345.20220958  .00001308  00000-0  38234-3 0  9994
2 35134  98.8978 136.6682 0065340 239.4284 120.0448 14.44615241472496
